satname,norad_id,inclination_deg,eccentricity,mean_motion_rev_per_day,perigee_km,apogee_km,l1,l2
STARLINK-1573,46061,53.1591,0.0001119,15.31707035,469.9526373478602,471.4854113261081,1 46061U 20055AL  26189.50952589  .00003690  00000+0  13058-3 0  9995,2 46061  53.1591 271.7470 0001119  92.9283 267.1846 15.31707035327587
STARLINK-1577,46063,53.1589,0.0001144,15.31702594,469.9487520138937,471.51577330118926,1 46063U 20055AN  26189.21123095 -.00003603  00000+0 -10439-3 0  9993,2 46063  53.1589 273.1306 0001144  74.9054 285.2074 15.31702594327538
STARLINK-1583,46064,53.1592,0.0001163,15.31702725,469.93534870465555,471.5283956043186,1 46064U 20055AP  26190.53029162  .00000708  00000+0  34581-4 0  9997,2 46064  53.1592 267.4907 0001163  86.6250 273.4885 15.31702725327721
STARLINK-1536,46070,53.1574,0.0001169,15.31716787,469.8893266382156,471.49058238018006,1 46070U 20055AV  26190.20533402  .00002385  00000+0  88543-4 0  9995,2 46070  53.1574 256.3900 0001169  84.5494 275.5641 15.31716787327851
STARLINK-1542,46073,53.1581,0.0001246,15.31714441,469.8435829844266,471.5503124041916,1 46073U 20055AY  26190.16445779  .00003315  00000+0  11850-3 0  9992,2 46073  53.1581 259.5490 0001246  60.1009 300.0116 15.31714441327798
STARLINK-1549,46074,53.0506,0.0001888,15.34215109,461.9611760102671,464.54448481023064,1 46074U 20055AZ  26190.18121649  .00021075  00000+0  63678-3 0  9990,2 46074  53.0506 256.1746 0001888  24.3548 335.7542 15.34215109327826
STARLINK-1551,46075,53.1605,0.000135,15.31707097,469.79424398129595,471.6434350579657,1 46075U 20055BA  26189.47858281  .00001739  00000+0  67784-4 0  9998,2 46075  53.1605 259.7108 0001350  77.4031 282.7121 15.31707097327732
STARLINK-1552,46076,53.1586,0.0001247,15.31725108,469.811104978372,471.5191962347335,1 46076U 20055BB  26189.46454773  .00008332  00000+0  27973-3 0  9997,2 46076  53.1586 259.3584 0001247  73.2737 286.8401 15.31725108327725
STARLINK-1559,46077,53.0218,0.0004221,15.41306049,439.37480084391336,445.13257466251434,1 46077U 20055BC  26189.36477328  .00036112  00000+0  85917-3 0  9997,2 46077  53.0218 227.0948 0004221  14.5236 345.5888 15.41306049328127
STARLINK-1566,46079,53.1596,0.0001282,15.31699106,469.864633821986,471.62068656686097,1 46079U 20055BE  26189.20817987  .00002025  00000+0  76997-4 0  9996,2 46079  53.1596 260.4045 0001282  86.3694 273.7454 15.31699106327709
STARLINK-1568,46080,53.0556,0.0003174,15.56956292,394.3216243140332,398.6221460343413,1 46080U 20055BF  26189.65273039  .00035252  00000+0  48494-3 0  9999,2 46080  53.0556 171.2379 0003174  89.9643 270.1732 15.56956292328979
STARLINK-1578,46082,53.1589,0.0001184,15.31704501,469.9156725640805,471.537483459354,1 46082U 20055BH  26189.47357945  .00003903  00000+0  13745-3 0  9999,2 46082  53.1589 259.6869 0001184  82.5273 277.5863 15.31704501327736
STARLINK-1579,46083,53.1574,0.0001401,15.31698241,469.7857103164906,471.7047671197797,1 46083U 20055BJ  26189.45987320 -.00000807  00000+0 -14244-4 0  9992,2 46083  53.1574 259.2836 0001401  78.8433 281.2726 15.31698241327732
STARLINK-1622,46128,53.008,0.0010415,16.04726125,254.43549999471998,268.2655525119053,1 46128U 20057M   26190.40365906  .00568874  16446-3  81843-3 0  9995,2 46128  53.0080 334.4976 0010415 298.2571  61.7408 16.04726125326584
STARLINK-1623,46129,53.0369,0.0002121,15.84965977,315.0006232346177,317.8404545426147,1 46129U 20057N   26190.83335647  .00138500  00000+0  57259-3 0  9990,2 46129  53.0369  13.8310 0002121 235.3105 144.9552 15.84965977  6031
STARLINK-1596,46141,53.0334,0.0002363,15.65775646,369.41411059549137,372.6037569637965,1 46141U 20057AA  26190.74575513  .00097454  00000+0  93844-3 0  9994,2 46141  53.0334   0.6298 0002363 193.3268 166.7685 15.65775646326267
STARLINK-1597,46142,53.0372,0.0003816,15.83668943,317.5192564750241,322.63133209802436,1 46142U 20057AB  26190.83335647  .00107377  00000+0  47449-3 0  9993,2 46142  53.0372  53.7215 0003816 202.8242 239.0949 15.83668943  6049
STARLINK-1608,46146,53.1552,0.000532,15.39116597,445.08844415788917,452.35222035941297,1 46146U 20057AF  26189.98863563  .00047348  00000+0  12056-2 0  9990,2 46146  53.1552 102.9324 0005320  87.6054 272.5560 15.39116597324794
STARLINK-1545,46156,53.0275,0.0012445,16.1791349,217.005157716565,233.4409208543466,1 46156U 20057AR  26190.70313231  .01579227  11760-4  91958-3 0  9991,2 46156  53.0275   7.6132 0012445 287.8478  72.1201 16.17913490327405
STARLINK-1595,46159,53.0374,0.0003791,15.80334259,326.95177736645473,332.0375036762971,1 46159U 20057AU  26189.88897456  .00124480  00000+0  64051-3 0  9997,2 46159  53.0374  61.8045 0003791 173.9362 186.1706 15.80334259326587
STARLINK-1598,46160,53.0424,0.0002473,15.78918559,331.84374578021834,335.1633231885744,1 46160U 20057AV  26189.87809373  .00104752  00000+0  57683-3 0  9992,2 46160  53.0424  48.2013 0002473 275.5158  84.5580 15.78918559326766
STARLINK-1626,46167,53.0368,0.0004693,15.84401491,314.8680209056538,321.1530249706839,1 46167U 20057BC  26190.83335647  .00096971  00000+0  41455-3 0  9998,2 46167  53.0368  51.9050 0004693 241.5655 316.6501 15.84401491  5982
STARLINK-1633,46171,53.0275,0.0009516,15.99710792,268.889142261437,281.5518122121148,1 46171U 20057BG  26190.83335647  .00415943  84775-4  80689-3 0  9995,2 46171  53.0275  10.4318 0009516 287.7300 356.3106 15.99710792  6008
STARLINK-1640,46173,53.0367,0.0003291,15.80878365,325.74849077603994,330.1624408370335,1 46173U 20057BJ  26190.83335647  .00045621  00000+0  23332-3 0  9995,2 46173  53.0367  58.0658 0003291 179.5927 324.2511 15.80878365  5873
STARLINK-1641,46174,53.045,0.0002639,15.68030097,362.75888910348385,366.31767311685417,1 46174U 20057BK  26190.01252795  .00054410  00000+0  48309-3 0  9995,2 46174  53.0450  56.3903 0002639 234.8914 125.1855 15.68030097325419
STARLINK-1695,46329,53.0382,0.0003745,15.8454936,315.08637879681555,320.10148126340846,1 46329U 20062E   26190.83335647  .00112724  00000+0  47726-3 0  9996,2 46329  53.0382  94.7969 0003745 217.4613 201.0332 15.84549360  5814
STARLINK-1719,46331,53.0278,0.0005041,15.96351451,281.19270396150205,287.91002637126167,1 46331U 20062G   26190.83335647  .00244266  34809-4  57692-3 0  9998,2 46331  53.0278  92.3334 0005041 214.2912 219.5851 15.96351451  6073
STARLINK-1759,46340,53.0049,0.0004367,16.06062571,254.7689007756635,260.5646117763945,1 46340U 20062R   26190.86335157  .00692916  25070-3  92391-3 0  9990,2 46340  53.0049  80.4777 0004367 218.4735 141.5985 16.06062571324212
